[
    {
        "Altitude(m)": 612502.2491593539,
        "Argument of Periapsis(deg)": 0.0,
        "Eccentricity": 0.0,
        "Inclination(deg)": 60.0,
        "Latitude(deg)": -28.13614964965308,
        "Longitude(deg)": -57.85172830861738,
        "Mean Anomaly(deg)": -32.72730000000003,
        "RAAN(deg)": 60.0,
        "Satellite Name": "Test1 284",
        "Satellite Number": 284,
        "Semi-Major Axis(m)": 6980739.136638005,
        "Time(s)": 0
    },
    {
        "Altitude(m)": 612308.6963052459,
        "Argument of Periapsis(deg)": 0.00010418945913296404,
        "Eccentricity": 0.0,
        "Inclination(deg)": 60.0,
        "Latitude(deg)": -27.623204707411624,
        "Longitude(deg)": -57.498254073341734,
        "Mean Anomaly(deg)": -32.10719385453818,
        "RAAN(deg)": 59.99957995086026,
        "Satellite Name": "Test1 284",
        "Satellite Number": 284,
        "Semi-Major Axis(m)": 6980739.136638005,
        "Time(s)": 10
    }
]